INTELSAT 36             
1 41747C 16053A   21343.00000000  .00000066  00000-0  00000-0 0  3436
2 41747   0.0087 359.3203 0000952  20.0167 127.1436  1.00270897    16
INTELSAT 36         [PM]
1 41747C 16053A   21343.31581019  .00000065  00000-0  00000-0 0  3433
2 41747   0.0081 343.1667 0000944  21.3147 255.9981  1.00270842    13
INTELSAT 33E            
1 41748C 16053B   21340.00000000  .00000139  00000-0  00000-0 0  3402
2 41748   0.0322  35.6357 0001533 208.2507 251.1189  1.00270744    11
INTELSAT 33E            
1 41748C 16053B   21343.00000000  .00000139  00000-0  00000-0 0  3438
2 41748   0.0229  24.4853 0001769 218.2805 255.1899  1.00271463    18
INTELSAT 33E        [PM]
1 41748C 16053B   21345.41319444  .00000140  00000-0  00000-0 0  3454
2 41748   0.0203 358.7574 0002023 245.7157  44.6143  1.00272205    10
INTELSAT 32E            
1 41945C 17007B   21340.00000000 -.00000206  00000-0  00000-0 0  3407
2 41945   0.0025   3.6147 0000825 105.7405 282.4920  1.00269943    12
INTELSAT 32E        [PM]
1 41945C 17007B   21342.08516204 -.00000169  00000-0  00000-0 0  3425
2 41945   0.0000   9.7147 0000835  93.1710 321.6474  1.00273519    16
INTELSAT 32E            
1 41945C 17007B   21343.00000000 -.00000179  00000-0  00000-0 0  3432
2 41945   0.0118  56.8372 0000555  53.4709 284.4704  1.00269601    14
INTELSAT 35E            
1 42818C 17041A   21340.00000000 -.00000150  00000-0  00000-0 0  3403
2 42818   0.0000 274.1309 0001355 329.8890 156.4975  1.00272406    14
INTELSAT 35E            
1 42818C 17041A   21343.00000000 -.00000148  00000-0  00000-0 0  3436
2 42818   0.0266 214.4117 0001499  36.1189 152.9450  1.00271528    13
INTELSAT 35E        [PM]
1 42818C 17041A   21346.18287037 -.00000145  00000-0  00000-0 0  3465
2 42818   0.0239 249.8388 0001791  12.0835 210.5184  1.00271051    17
INTELSAT 37E            
1 42950C 17059A   21340.00000000 -.00000054  00000-0  00000-0 0  3402
2 42950   0.0024 330.6679 0002411 274.8188 171.5286  1.00270145    19
INTELSAT 37E            
1 42950C 17059A   21343.00000000 -.00000044  00000-0  00000-0 0  3437
2 42950   0.0000   5.6312 0002465 245.0587 169.2673  1.00272473    18
INTELSAT 37E        [PM]
1 42950C 17059A   21346.63680556 -.00000051  00000-0  00000-0 0  3460
2 42950   0.0058 311.0318 0002856 304.7620  37.0069  1.00271448    18
AZERSPACE 2             
1 43632C 18074A   21340.00000000 -.00004609  00000-0  00000-0 0  3408
2 43632   0.0013   7.5525 0001037 242.3779 230.2054  1.00269744    13
AZERSPACE 2             
1 43632C 18074A   21343.00000000 -.00003682  00000-0  00000-0 0  3434
2 43632   0.0127  63.6768 0001195 190.8524 228.5573  1.00271031    19
HORIZONS 3E             
1 43633C 18074B   21340.00000000  .00000055  00000-0  00000-0 0  3409
2 43633   0.0374 116.8642 0000583 116.6413  10.5176  1.00269463    13
HORIZONS 3E             
1 43633C 18074B   21343.00000000 -.00001803  00000-0  00000-0 0  3438
2 43633   0.0153 134.1854 0000670  93.7713  19.0183  1.00268583    15
INTELSAT 39             
1 44476C 19049B   21340.00000000  .00000141  00000-0  00000-0 0  3404
2 44476   0.0009 349.9834 0000815 131.6461  15.3334  1.00270739    11
INTELSAT 39         [PM]
1 44476C 19049B   21342.47008102 -.00004218  00000-0  00000-0 0  3420
2 44476   0.0018 314.8735 0000785 164.6829 189.0680  1.00271488    17
INTELSAT 39             
1 44476C 19049B   21343.00000000 -.00003862  00000-0  00000-0 0  3434
2 44476   0.0000 351.8164 0000745 143.3322   4.7681  1.00270181    16
GALAXY 30               
1 46114C 20056C   21340.00000000 -.00004429  00000-0  00000-0 0  3409
2 46114   0.0447 152.0474 0001576  74.9944  82.9970  1.00268767    15
GALAXY 30               
1 46114C 20056C   21343.00000000  .00000117  00000-0  00000-0 0  3434
2 46114   0.0061 299.3430 0001697 290.0758  83.5515  1.00269345    17
GALAXY 30           [PM]
1 46114C 20056C   21346.97777778 -.00005420  00000-0  00000-0 0  3462
2 46114   0.0377 152.6645 0001959  94.0594  62.1561  1.00270576    19
